NORAD_CAT_ID,OBJECT_NAME,OBJECT_TYPE,EPOCH,MEAN_MOTION,ECCENTRICITY,INCLINATION,RA_OF_ASC_NODE,ARG_OF_PERICENTER,MEAN_ANOMALY,BSTAR,MEAN_MOTION_DOT,MEAN_MOTION_DDOT,TLE_LINE0,TLE_LINE1,TLE_LINE2,SEMIMAJOR_AXIS,PERIOD,APOGEE,PERIGEE,DECAYED
54083.0,STARLINK-5178,PAYLOAD,2022-11-28 22:00:01,15.73210839,0.0003763,53.2151,313.3611,7.6517,112.2626,0.00054044,0.00075972,0.0,0 STARLINK-5178,1 54083U 22136AJ  22332.91668981  .00075972  00000-0  54044-3 0  9994,2 54083  53.2151 313.3611 0003763   7.6517 112.2626 15.73210839  1305,6727.864000000001,91.533,352.261,347.1980000000001,0.0
54083.0,STARLINK-5178,PAYLOAD,2022-11-29 14:00:01,15.73268104,0.0003919,53.2153,310.0606,359.5142,298.3308,-0.0015190999999999,-0.0020934,0.0,0 STARLINK-5178,1 54083U 22136AJ  22333.58335648 -.00209340  00000-0 -15191-2 0  9998,2 54083  53.2153 310.0606 0003919 359.5142 298.3308 15.73268104  6802,6727.701,91.529,352.20300000000015,346.92900000000014,0.0
54083.0,STARLINK-5178,PAYLOAD,2022-11-29 22:00:00,15.73174521,0.0003616,53.2165,308.4072,341.3588,45.3495,-0.0045093999999999,-0.00590778,0.0,0 STARLINK-5178,1 54083U 22136AJ  22333.91667824 -.00590778  00000-0 -45094-2 0  9992,2 54083  53.2165 308.4072 0003616 341.3588  45.3495 15.73174521  6851,6727.968000000003,91.535,352.266,347.4,0.0
54083.0,STARLINK-5178,PAYLOAD,2022-11-30 06:00:00,15.72778351,0.0004486,53.2174,306.7587,300.0496,175.3219,-0.0089332,-0.0110396,0.0,0 STARLINK-5178,1 54083U 22136AJ  22334.25001157 -.01103960  00000-0 -89332-2 0  9998,2 54083  53.2174 306.7587 0004486 300.0496 175.3219 15.72778351  6903,6729.098000000001,91.558,353.981,347.944,0.0
54083.0,STARLINK-5178,PAYLOAD,2022-11-30 14:00:01,15.7198311,0.0006357,53.2174,305.1101,276.7898,286.5777,-0.0095296,-0.01135763,0.0,0 STARLINK-5178,1 54083U 22136AJ  22334.58335648 -.01135763  00000-0 -95296-2 0  9991,2 54083  53.2174 305.1101 0006357 276.7898 286.5777 15.71983110  1305,6731.3669999999975,91.604,357.511,348.95300000000015,0.0
54083.0,STARLINK-5178,PAYLOAD,2022-11-30 22:00:00,15.71151379,0.0006607,53.2175,303.4634,269.1451,21.1218,-0.0095711,-0.01104742,0.0,0 STARLINK-5178,1 54083U 22136AJ  22334.91667824 -.01104742  00000-0 -95711-2 0  9997,2 54083  53.2175 303.4634 0006607 269.1451  21.1218 15.71151379  7018,6733.7419999999975,91.653,360.056,351.158,0.0
54083.0,STARLINK-5178,PAYLOAD,2022-12-01 14:00:01,15.69549062,0.0002764,53.2175,300.1792,272.5777,188.6631,-0.010689,-0.0116452,0.0,0 STARLINK-5178,1 54083U 22136AJ  22335.58334491 -.01164520  00000-0 -10689-1 0  9992,2 54083  53.2175 300.1792 0002764 272.5777 188.6631 15.69549062  1307,6738.324000000001,91.746,362.052,358.327,0.0
54083.0,STARLINK-5178,PAYLOAD,2022-12-01 22:00:00,15.6871561,0.0004196,53.2169,298.5398,262.5939,282.6795,-0.010754,-0.01117284,0.0,0 STARLINK-5178,1 54083U 22136AJ  22335.91667824 -.01117284  00000-0 -10754-1 0  9996,2 54083  53.2169 298.5398 0004196 262.5939 282.6795 15.68715610  1301,6740.7109999999975,91.795,365.404,359.747,0.0
54083.0,STARLINK-5178,PAYLOAD,2022-12-02 00:00:00,15.68503405,0.0003462,53.2172,298.1302,258.7584,37.3697,-0.010637,-0.01097332,0.0,0 STARLINK-5178,1 54083U 22136AJ  22336.00001157 -.01097332  00000-0 -10637-1 0  9999,2 54083  53.2172 298.1302 0003462 258.7584  37.3697 15.68503405  7189,6741.319,91.807,365.518,360.85,0.0
54083.0,STARLINK-5178,PAYLOAD,2022-12-02 06:00:00,15.67901013,1.46e-05,53.2175,296.9033,64.1476,204.1717,-0.011072,-0.01129028,0.0,0 STARLINK-5178,1 54083U 22136AJ  22336.25001157 -.01129028  00000-0 -11072-1 0  9998,2 54083  53.2175 296.9033 0000146  64.1476 204.1717 15.67901013  7222,6743.045,91.843,365.009,364.812,0.0
54083.0,STARLINK-5178,PAYLOAD,2022-12-02 14:00:01,15.6709103,7.890000000000001e-05,53.217,295.2669,313.6731,36.7139,-0.011494,-0.0113351,0.0,0 STARLINK-5178,1 54083U 22136AJ  22336.58334491 -.01133510  00000-0 -11494-1 0  9993,2 54083  53.2170 295.2669 0000789 313.6731  36.7139 15.67091030  1302,6745.369000000002,91.89,367.766,366.701,0.0
54083.0,STARLINK-5178,PAYLOAD,2022-12-02 22:00:00,15.66323461,0.0001093,53.2166,293.6329,40.2281,31.2277,-0.012596,-0.01197136,0.0,0 STARLINK-5178,1 54083U 22136AJ  22336.91667824 -.01197136  00000-0 -12596-1 0  9997,2 54083  53.2166 293.6329 0001093  40.2281  31.2277 15.66323461  1302,6747.571999999999,91.935,370.175,368.7,0.0
54083.0,STARLINK-5178,PAYLOAD,2022-12-03 00:00:00,15.66075572,0.0001329,53.2171,293.2247,51.591,130.0066,-0.012024,-0.01137546,0.0,0 STARLINK-5178,1 54083U 22136AJ  22337.00001157 -.01137546  00000-0 -12024-1 0  9994,2 54083  53.2171 293.2247 0001329  51.5910 130.0066 15.66075572  7339,6748.284000000002,91.95,371.046,369.252,0.0
54083.0,STARLINK-5178,PAYLOAD,2022-12-03 14:00:01,15.64655516,0.0001215,53.2171,290.3718,75.9442,154.7799,-0.012801,-0.0114309,0.0,0 STARLINK-5178,1 54083U 22136AJ  22337.58334491 -.01143090  00000-0 -12801-1 0  9991,2 54083  53.2171 290.3718 0001215  75.9442 154.7799 15.64655516  1301,6752.3669999999975,92.033,375.052,373.411,0.0
54083.0,STARLINK-5178,PAYLOAD,2022-12-03 22:00:00,15.63855796,0.000116,53.2169,288.7438,69.4309,239.4433,-0.013432,-0.01159949,0.0,0 STARLINK-5178,1 54083U 22136AJ  22337.91667824 -.01159949  00000-0 -13432-1 0  9998,2 54083  53.2169 288.7438 0001160  69.4309 239.4433 15.63855796  1304,6754.668000000002,92.08,377.317,375.75,0.0
54083.0,STARLINK-5178,PAYLOAD,2022-12-04 14:00:01,15.62231912,0.0001266,53.2168,285.4951,60.1587,42.0946,-0.014379,-0.01164141,0.0,0 STARLINK-5178,1 54083U 22136AJ  22338.58334491 -.01164141  00000-0 -14379-1 0  9994,2 54083  53.2168 285.4951 0001266  60.1587  42.0946 15.62231912  1304,6759.348000000001,92.176,382.069,380.358,0.0
54083.0,STARLINK-5178,PAYLOAD,2022-12-04 22:00:00,15.61408419,0.0001366,53.2166,283.8724,64.7578,112.7245,-0.014653,-0.01150223,0.0,0 STARLINK-5178,1 54083U 22136AJ  22338.91667824 -.01150223  00000-0 -14653-1 0  9991,2 54083  53.2166 283.8724 0001366  64.7578 112.7245 15.61408419  7639,6761.725,92.224,384.514,382.666,0.0
54083.0,STARLINK-5178,PAYLOAD,2022-12-05 14:00:01,15.59796298,9.73e-05,53.2168,280.6354,77.3078,247.7474,-0.015927,-0.01172036,0.0,0 STARLINK-5178,1 54083U 22136AJ  22339.58335648 -.01172036  00000-0 -15927-1 0  9992,2 54083  53.2168 280.6354 0000973  77.3078 247.7474 15.59796298  1306,6766.3830000000025,92.32,388.906,387.59,0.0
54083.0,STARLINK-5178,PAYLOAD,2022-12-05 22:00:01,15.58955207,0.0001071,53.2176,279.0182,74.5489,322.8098,-0.015864,-0.01134333,0.0,0 STARLINK-5178,1 54083U 22136AJ  22339.91668981 -.01134333  00000-0 -15864-1 0  9996,2 54083  53.2176 279.0182 0001071  74.5489 322.8098 15.58955207  1304,6768.816999999999,92.37,391.407,389.957,0.0
54083.0,STARLINK-5178,PAYLOAD,2022-12-06 00:00:00,15.58750102,0.0001267,53.2175,278.6152,71.8295,73.3843,-0.015947,-0.01131717,0.0,0 STARLINK-5178,1 54083U 22136AJ  22340.00001157 -.01131717  00000-0 -15947-1 0  9999,2 54083  53.2175 278.6152 0001267  71.8295  73.3843 15.58750102  7801,6769.41,92.382,392.133,390.418,0.0
54083.0,STARLINK-5178,PAYLOAD,2022-12-06 14:00:01,15.57332572,0.0001212,53.2172,275.793,68.8909,110.1123,-0.016971,-0.0114039,0.0,0 STARLINK-5178,1 54083U 22136AJ  22340.58335648 -.01140390  00000-0 -16971-1 0  9992,2 54083  53.2172 275.7930 0001212  68.8909 110.1123 15.57332572  1304,6773.518,92.466,396.204,394.562,0.0
54083.0,STARLINK-5178,PAYLOAD,2022-12-06 22:00:00,15.56530423,0.0001184,53.217,274.183,78.0091,170.2798,-0.017734,-0.01154694,0.0,0 STARLINK-5178,1 54083U 22136AJ  22340.91667824 -.01154694  00000-0 -17734-1 0  9993,2 54083  53.2170 274.1830 0001184  78.0091 170.2798 15.56530423  1306,6775.845,92.513,398.512,396.907,0.0
54083.0,STARLINK-5178,PAYLOAD,2022-12-07 02:00:01,15.55978835,0.0001158,53.2172,273.379,85.3556,17.3167,-0.014797,-0.00947322,0.0,0 STARLINK-5178,1 54083U 22136AJ  22341.08334491 -.00947322  00000-0 -14797-1 0  9996,2 54083  53.2172 273.3790 0001158  85.3556  17.3167 15.55978835  7974,6777.446,92.546,400.096,398.526,0.0
54083.0,STARLINK-5178,PAYLOAD,2022-12-07 14:00:01,15.54397491,8.51e-05,53.2175,270.9686,41.4239,342.8966,-0.0069901,-0.00441967,0.0,0 STARLINK-5178,1 54083U 22136AJ  22341.58334491 -.00441967  00000-0 -69901-2 0  9993,2 54083  53.2175 270.9686 0000851  41.4239 342.8966 15.54397491  8059,6782.042,92.64,404.484,403.329,0.0
54083.0,STARLINK-5178,PAYLOAD,2022-12-07 22:00:00,15.53318112,0.0001113,53.2167,269.3644,77.2531,13.6554,-0.0016007,-0.00101889,0.0,0 STARLINK-5178,1 54083U 22136AJ  22341.91667824 -.00101889  00000-0 -16007-2 0  9994,2 54083  53.2167 269.3644 0001113  77.2531  13.6554 15.53318112  1309,6785.183000000001,92.705,407.80300000000005,406.293,0.0
54083.0,STARLINK-5178,PAYLOAD,2022-12-08 00:00:00,15.53707558,0.0001089,53.2174,268.9631,86.8818,110.1469,-0.0150889999999999,-0.00893417,0.0,0 STARLINK-5178,1 54083U 22136AJ  22342.00001157 -.00893417  00000-0 -15089-1 0  9999,2 54083  53.2174 268.9631 0001089  86.8818 110.1469 15.53707558  8125,6784.049,92.682,406.653,405.175,0.0
54083.0,STARLINK-5178,PAYLOAD,2022-12-08 08:00:01,15.53055081,0.0001176,53.2171,267.3631,79.346,182.8082,-0.019716,-0.01131342,0.0,0 STARLINK-5178,1 54083U 22136AJ  22342.33334491 -.01131342  00000-0 -19716-1 0  9999,2 54083  53.2171 267.3631 0001176  79.3460 182.8082 15.53055081  8171,6785.949000000001,92.72,408.612,407.016,0.0
54083.0,STARLINK-5178,PAYLOAD,2022-12-08 14:00:01,15.52462593,0.0001248,53.2172,266.1624,80.7209,139.6839,-0.020608,-0.0115475,0.0,0 STARLINK-5178,1 54083U 22136AJ  22342.58334491 -.01154750  00000-0 -20608-1 0  9996,2 54083  53.2172 266.1624 0001248  80.7209 139.6839 15.52462593  1305,6787.676,92.756,410.388,408.694,0.0
54083.0,STARLINK-5178,PAYLOAD,2022-12-08 22:00:01,15.51630066,0.0001142,53.2175,264.5639,81.8897,202.0789,-0.020731,-0.01129761,0.0,0 STARLINK-5178,1 54083U 22136AJ  22342.91668981 -.01129761  00000-0 -20731-1 0  9998,2 54083  53.2175 264.5639 0001142  81.8897 202.0789 15.51630066  1304,6790.103,92.806,412.744,411.193,0.0
